{
  "type": "FeatureCollection",
  "features": [
    {
      "type": "Feature",
      "properties": {
        "norad_id": 33860,
        "name": "IRIDIUM 33 DEB",
        "group": "iridium-33-debris",
        "lat": -14.390299780717973,
        "lon": -153.3468994380422,
        "alt_km": 678.4984452767285,
        "timestamp": "2025-12-16T03:53:27.440113+00:00",
        "meta_object_name": "IRIDIUM 33 DEB",
        "meta_object_id": "1997-051AD",
        "meta_epoch": "2025-12-15T09:05:15.964800",
        "meta_mean_motion": 14.67404874,
        "meta_eccentricity": 0.00071086,
        "meta_inclination": 86.3831,
        "meta_ra_of_asc_node": 26.0699,
        "meta_arg_of_pericenter": 348.2033,
        "meta_mean_anomaly": 30.0385,
        "meta_ephemeris_type": 0,
        "meta_classification_type": "U",
        "meta_norad_cat_id": 33860,
        "meta_element_set_no": 999,
        "meta_rev_at_epoch": 88761,
        "meta_bstar": 0.00075798126,
        "meta_mean_motion_dot": 4.308e-05,
        "meta_mean_motion_ddot": 0,
        "tle_line1": "1 33860U 97051AD  25349.37865700  .00004308  00000+0  75798-3 0  9994",
        "tle_line2": "2 33860  86.3831  26.0699 0007108 348.2033  30.0385 14.67404874887616"
      },
      "geometry": {
        "type": "Point",
        "coordinates": [
          -153.3468994380422,
          -14.390299780717973
        ]
      }
    },
    {
      "type": "Feature",
      "properties": {
        "norad_id": 33862,
        "name": "IRIDIUM 33 DEB",
        "group": "iridium-33-debris",
        "lat": -75.07005196270407,
        "lon": -130.35769473030032,
        "alt_km": 705.6365218496794,
        "timestamp": "2025-12-16T03:53:27.440125+00:00",
        "meta_object_name": "IRIDIUM 33 DEB",
        "meta_object_id": "1997-051AF",
        "meta_epoch": "2025-12-15T04:07:50.386944",
        "meta_mean_motion": 14.69521451,
        "meta_eccentricity": 0.00532191,
        "meta_inclination": 86.4094,
        "meta_ra_of_asc_node": 36.458,
        "meta_arg_of_pericenter": 61.0473,
        "meta_mean_anomaly": 0.5687,
        "meta_ephemeris_type": 0,
        "meta_classification_type": "U",
        "meta_norad_cat_id": 33862,
        "meta_element_set_no": 999,
        "meta_rev_at_epoch": 88859,
        "meta_bstar": 0.00085184927,
        "meta_mean_motion_dot": 5.187e-05,
        "meta_mean_motion_ddot": 0,
        "tle_line1": "1 33862U 97051AF  25349.17211096  .00005187  00000+0  85185-3 0  9994",
        "tle_line2": "2 33862  86.4094  36.4580 0053219  61.0473   0.5687 14.69521451888594"
      },
      "geometry": {
        "type": "Point",
        "coordinates": [
          -130.35769473030032,
          -75.07005196270407
        ]
      }
    },
    {
      "type": "Feature",
      "properties": {
        "norad_id": 33866,
        "name": "IRIDIUM 33 DEB",
        "group": "iridium-33-debris",
        "lat": 43.30963714709145,
        "lon": -91.90971493458115,
        "alt_km": 723.9720684383165,
        "timestamp": "2025-12-16T03:53:27.440136+00:00",
        "meta_object_name": "IRIDIUM 33 DEB",
        "meta_object_id": "1997-051AK",
        "meta_epoch": "2025-12-15T07:17:22.424928",
        "meta_mean_motion": 14.25284499,
        "meta_eccentricity": 0.01146747,
        "meta_inclination": 86.2998,
        "meta_ra_of_asc_node": 91.9508,
        "meta_arg_of_pericenter": 153.2563,
        "meta_mean_anomaly": 261.8832,
        "meta_ephemeris_type": 0,
        "meta_classification_type": "U",
        "meta_norad_cat_id": 33866,
        "meta_element_set_no": 999,
        "meta_rev_at_epoch": 86847,
        "meta_bstar": 0.00054431165,
        "meta_mean_motion_dot": 1.391e-05,
        "meta_mean_motion_ddot": 0,
        "tle_line1": "1 33866U 97051AK  25349.30373177  .00001391  00000+0  54431-3 0  9995",
        "tle_line2": "2 33866  86.2998  91.9508 0114674 153.2563 261.8832 14.25284499868471"
      },
      "geometry": {
        "type": "Point",
        "coordinates": [
          -91.90971493458115,
          43.30963714709145
        ]
      }
    },
    {
      "type": "Feature",
      "properties": {
        "norad_id": 33867,
        "name": "IRIDIUM 33 DEB",
        "group": "iridium-33-debris",
        "lat": 14.540397790380927,
        "lon": 167.37437366527533,
        "alt_km": 347.62105220938156,
        "timestamp": "2025-12-16T03:53:27.440147+00:00",
        "meta_object_name": "IRIDIUM 33 DEB",
        "meta_object_id": "1997-051AL",
        "meta_epoch": "2025-12-14T23:42:29.137536",
        "meta_mean_motion": 15.72109252,
        "meta_eccentricity": 0.00134585,
        "meta_inclination": 86.3648,
        "meta_ra_of_asc_node": 348.9333,
        "meta_arg_of_pericenter": 89.1802,
        "meta_mean_anomaly": 271.1011,
        "meta_ephemeris_type": 0,
        "meta_classification_type": "U",
        "meta_norad_cat_id": 33867,
        "meta_element_set_no": 999,
        "meta_rev_at_epoch": 89546,
        "meta_bstar": 0.0054513416,
        "meta_mean_motion_dot": 0.00783723,
        "meta_mean_motion_ddot": 0,
        "tle_line1": "1 33867U 97051AL  25348.98783724  .00783723  00000+0  54513-2 0  9998",
        "tle_line2": "2 33867  86.3648 348.9333 0013458  89.1802 271.1011 15.72109252895465"
      },
      "geometry": {
        "type": "Point",
        "coordinates": [
          167.37437366527533,
          14.540397790380927
        ]
      }
    },
    {
      "type": "Feature",
      "properties": {
        "norad_id": 33870,
        "name": "IRIDIUM 33 DEB",
        "group": "iridium-33-debris",
        "lat": 51.19682629696516,
        "lon": -127.72800453250166,
        "alt_km": 722.3808199335408,
        "timestamp": "2025-12-16T03:53:27.440158+00:00",
        "meta_object_name": "IRIDIUM 33 DEB",
        "meta_object_id": "1997-051AP",
        "meta_epoch": "2025-12-15T04:10:48.574848",
        "meta_mean_motion": 14.45866059,
        "meta_eccentricity": 0.00217446,
        "meta_inclination": 86.3749,
        "meta_ra_of_asc_node": 57.2172,
        "meta_arg_of_pericenter": 170.2327,
        "meta_mean_anomaly": 219.395,
        "meta_ephemeris_type": 0,
        "meta_classification_type": "U",
        "meta_norad_cat_id": 33870,
        "meta_element_set_no": 999,
        "meta_rev_at_epoch": 88172,
        "meta_bstar": 0.00054576432,
        "meta_mean_motion_dot": 1.963e-05,
        "meta_mean_motion_ddot": 0,
        "tle_line1": "1 33870U 97051AP  25349.17417332  .00001963  00000+0  54576-3 0  9992",
        "tle_line2": "2 33870  86.3749  57.2172 0021744 170.2327 219.3950 14.45866059881727"
      },
      "geometry": {
        "type": "Point",
        "coordinates": [
          -127.72800453250166,
          51.19682629696516
        ]
      }
    },
    {
      "type": "Feature",
      "properties": {
        "norad_id": 33881,
        "name": "IRIDIUM 33 DEB",
        "group": "iridium-33-debris",
        "lat": 50.93404367017387,
        "lon": -79.21138791344787,
        "alt_km": 663.5145538918259,
        "timestamp": "2025-12-16T03:53:27.440169+00:00",
        "meta_object_name": "IRIDIUM 33 DEB",
        "meta_object_id": "1997-051BA",
        "meta_epoch": "2025-12-15T07:47:50.945280",
        "meta_mean_motion": 14.56627803,
        "meta_eccentricity": 0.00615046,
        "meta_inclination": 86.3858,
        "meta_ra_of_asc_node": 105.6186,
        "meta_arg_of_pericenter": 166.2972,
        "meta_mean_anomaly": 255.4679,
        "meta_ephemeris_type": 0,
        "meta_classification_type": "U",
        "meta_norad_cat_id": 33881,
        "meta_element_set_no": 999,
        "meta_rev_at_epoch": 87538,
        "meta_bstar": 0.0012949657,
        "meta_mean_motion_dot": 5.947e-05,
        "meta_mean_motion_ddot": 0,
        "tle_line1": "1 33881U 97051BA  25349.32489520  .00005947  00000+0  12950-2 0  9994",
        "tle_line2": "2 33881  86.3858 105.6186 0061504 166.2972 255.4679 14.56627803875380"
      },
      "geometry": {
        "type": "Point",
        "coordinates": [
          -79.21138791344787,
          50.93404367017387
        ]
      }
    },
    {
      "type": "Feature",
      "properties": {
        "norad_id": 33884,
        "name": "IRIDIUM 33 DEB",
        "group": "iridium-33-debris",
        "lat": -27.52304079637602,
        "lon": 6.378262364083356,
        "alt_km": 636.9827101193787,
        "timestamp": "2025-12-16T03:53:27.440180+00:00",
        "meta_object_name": "IRIDIUM 33 DEB",
        "meta_object_id": "1997-051BD",
        "meta_epoch": "2025-12-15T02:05:29.319360",
        "meta_mean_motion": 14.77481869,
        "meta_eccentricity": 0.00094149,
        "meta_inclination": 86.3699,
        "meta_ra_of_asc_node": 8.7591,
        "meta_arg_of_pericenter": 315.0277,
        "meta_mean_anomaly": 63.4557,
        "meta_ephemeris_type": 0,
        "meta_classification_type": "U",
        "meta_norad_cat_id": 33884,
        "meta_element_set_no": 999,
        "meta_rev_at_epoch": 88882,
        "meta_bstar": 0.00091673308,
        "meta_mean_motion_dot": 6.562e-05,
        "meta_mean_motion_ddot": 0,
        "tle_line1": "1 33884U 97051BD  25349.08714490  .00006562  00000+0  91673-3 0  9991",
        "tle_line2": "2 33884  86.3699   8.7591 0009414 315.0277  63.4557 14.77481869888821"
      },
      "geometry": {
        "type": "Point",
        "coordinates": [
          6.378262364083356,
          -27.52304079637602
        ]
      }
    }
  ]
}